[{"OBJECT_NAME":"STARLINK-5447","OBJECT_ID":"2022-175X","EPOCH":"2026-03-09T04:43:18.673824","MEAN_MOTION":15.08831851,"ECCENTRICITY":0.00012685,"INCLINATION":53.2191,"RA_OF_ASC_NODE":31.4361,"ARG_OF_PERICENTER":93.8484,"MEAN_ANOMALY":266.2653,"EPHEMERIS_TYPE":0,"CLASSIFICATION_TYPE":"U","NORAD_CAT_ID":54779,"ELEMENT_SET_NO":999,"REV_AT_EPOCH":18005,"BSTAR":-3.3152079e-5,"MEAN_MOTION_DOT":-8.15e-6,"MEAN_MOTION_DDOT":0},{"OBJECT_NAME":"JILIN-1 KUANFU 02A","OBJECT_ID":"2023-127A","EPOCH":"2026-03-09T22:42:00.221760","MEAN_MOTION":15.09948681,"ECCENTRICITY":0.0009702,"INCLINATION":97.5529,"RA_OF_ASC_NODE":164.1218,"ARG_OF_PERICENTER":318.2814,"MEAN_ANOMALY":41.7675,"EPHEMERIS_TYPE":0,"CLASSIFICATION_TYPE":"U","NORAD_CAT_ID":57696,"ELEMENT_SET_NO":999,"REV_AT_EPOCH":14065,"BSTAR":0.00045097028,"MEAN_MOTION_DOT":7.263e-5,"MEAN_MOTION_DDOT":0}]
